IRIDIUM 159             
1 43578U 18061K   23359.65737122  .00000513  00000+0  17593-3 0  9994
2 43578  86.3964  74.7415 0002061  98.8983 261.2446 14.34225076283739
IRIDIUM 180             
1 43922U 19002A   23359.58711174  .00000485  00000+0  16601-3 0  9991
2 43922  86.3968  11.6443 0002068  95.5799 264.5633 14.34219991259379
IRIDIUM 176             
1 43923U 19002B   23359.57671987  .00001714  00000+0  26771-3 0  9993
2 43923  86.6097  11.6795 0002452  91.7785 268.3713 14.72278426266151
IRIDIUM 168             
1 43924U 19002C   23359.58076569  .00000508  00000+0  17434-3 0  9996
2 43924  86.3970  11.6988 0002110  92.8854 267.2583 14.34219542259318
IRIDIUM 173             
1 43925U 19002D   23359.84715996  .00000515  00000+0  17684-3 0  9995
2 43925  86.3967  11.5134 0002264  93.9168 266.2286 14.34219215259335
IRIDIUM 169             
1 43926U 19002E   23359.60993408  .00000558  00000+0  17598-3 0  9997
2 43926  86.4222  43.2194 0004971  88.2953 271.8815 14.38609133260175
IRIDIUM 172             
1 43927U 19002F   23359.56174170  .00000488  00000+0  16714-3 0  9991
2 43927  86.3967  11.6378 0002102  93.5128 266.6309 14.34221509259307
IRIDIUM 175             
1 43928U 19002G   23359.91062818  .00001807  00000+0  28244-3 0  9993
2 43928  86.1508 354.5404 0002477  89.2110 270.9390 14.72273167266196
